{"type": "FeatureCollection", "features": [{"type": "Feature", "properties": {"norad_id": 22490, "name": "SCD 1", "group": "resource", "lat": -20.065440149667197, "lon": 179.6838523418369, "alt_km": 744.2712889241911, "timestamp": "2025-12-20T09:36:01.287965+00:00", "meta": {"OBJECT_NAME": "SCD 1", "OBJECT_ID": "1993-009B", "EPOCH": "2025-12-20T02:06:40.199328", "MEAN_MOTION": 14.46003712, "ECCENTRICITY": 0.00421, "INCLINATION": 24.9683, "RA_OF_ASC_NODE": 233.3258, "ARG_OF_PERICENTER": 42.7923, "MEAN_ANOMALY": 75.5892, "EPHEMERIS_TYPE": 0, "CLASSIFICATION_TYPE": "U", "NORAD_CAT_ID": 22490, "ELEMENT_SET_NO": 999, "REV_AT_EPOCH": 73516, "BSTAR": 6.2478e-05, "MEAN_MOTION_DOT": 4.13e-06, "MEAN_MOTION_DDOT": 0}, "tle": {"line1": "1 22490U 93009B   25354.08796527  .00000413  00000+0  62478-4 0  9999", "line2": "2 22490  24.9683 233.3258 0042100  42.7923  75.5892 14.46003712735167"}}, "geometry": {"type": "Point", "coordinates": [179.6838523418369, -20.065440149667197]}}, {"type": "Feature", "properties": {"norad_id": 25397, "name": "TECHSAT 1B (GO-32)", "group": "resource", "lat": -7.16588504898109, "lon": 156.6482505601301, "alt_km": 815.4232862319996, "timestamp": "2025-12-20T09:36:01.288002+00:00", "meta": {"OBJECT_NAME": "TECHSAT 1B (GO-32)", "OBJECT_ID": "1998-043D", "EPOCH": "2025-12-19T22:36:33.577056", "MEAN_MOTION": 14.24378966, "ECCENTRICITY": 0.00018324, "INCLINATION": 98.9926, "RA_OF_ASC_NODE": 337.3205, "ARG_OF_PERICENTER": 45.9373, "MEAN_ANOMALY": 314.1956, "EPHEMERIS_TYPE": 0, "CLASSIFICATION_TYPE": "U", "NORAD_CAT_ID": 25397, "ELEMENT_SET_NO": 999, "REV_AT_EPOCH": 42581, "BSTAR": 4.0103919e-05, "MEAN_MOTION_DOT": 4.6e-07, "MEAN_MOTION_DDOT": 0}, "tle": {"line1": "1 25397U 98043D   25353.94205529  .00000046  00000+0  40104-4 0  9996", "line2": "2 25397  98.9926 337.3205 0001832  45.9373 314.1956 14.24378966425818"}}, "geometry": {"type": "Point", "coordinates": [156.6482505601301, -7.16588504898109]}}, {"type": "Feature", "properties": {"norad_id": 25504, "name": "SCD 2", "group": "resource", "lat": -15.097573554973973, "lon": 59.279389000127225, "alt_km": 736.772802779059, "timestamp": "2025-12-20T09:36:01.288019+00:00", "meta": {"OBJECT_NAME": "SCD 2", "OBJECT_ID": "1998-060A", "EPOCH": "2025-12-19T16:11:25.681920", "MEAN_MOTION": 14.4542685, "ECCENTRICITY": 0.0016943, "INCLINATION": 24.9945, "RA_OF_ASC_NODE": 99.1342, "ARG_OF_PERICENTER": 26.9849, "MEAN_ANOMALY": 112.7893, "EPHEMERIS_TYPE": 0, "CLASSIFICATION_TYPE": "U", "NORAD_CAT_ID": 25504, "ELEMENT_SET_NO": 999, "REV_AT_EPOCH": 43432, "BSTAR": 4.7822e-05, "MEAN_MOTION_DOT": 3.53e-06, "MEAN_MOTION_DDOT": 0}, "tle": {"line1": "1 25504U 98060A   25353.67460280  .00000353  00000+0  47822-4 0  9997", "line2": "2 25504  24.9945  99.1342 0016943  26.9849 112.7893 14.45426850434326"}}, "geometry": {"type": "Point", "coordinates": [59.279389000127225, -15.097573554973973]}}, {"type": "Feature", "properties": {"norad_id": 25757, "name": "DLR-TUBSAT", "group": "resource", "lat": 79.66129972266994, "lon": -144.2234388607619, "alt_km": 707.6931420174706, "timestamp": "2025-12-20T09:36:01.288033+00:00", "meta": {"OBJECT_NAME": "DLR-TUBSAT", "OBJECT_ID": "1999-029B", "EPOCH": "2025-12-17T13:22:10.787520", "MEAN_MOTION": 14.52359578, "ECCENTRICITY": 0.00141996, "INCLINATION": 98.6566, "RA_OF_ASC_NODE": 336.2196, "ARG_OF_PERICENTER": 177.8976, "MEAN_ANOMALY": 182.2281, "EPHEMERIS_TYPE": 0, "CLASSIFICATION_TYPE": "U", "NORAD_CAT_ID": 25757, "ELEMENT_SET_NO": 999, "REV_AT_EPOCH": 40688, "BSTAR": 3.7650132e-05, "MEAN_MOTION_DOT": 1.05e-06, "MEAN_MOTION_DDOT": 0}, "tle": {"line1": "1 25757U 99029B   25351.55706930  .00000105  00000+0  37650-4 0  9996", "line2": "2 25757  98.6566 336.2196 0014199 177.8976 182.2281 14.52359578406886"}}, "geometry": {"type": "Point", "coordinates": [-144.2234388607619, 79.66129972266994]}}, {"type": "Feature", "properties": {"norad_id": 25994, "name": "TERRA", "group": "resource", "lat": 33.45145696646457, "lon": 40.489568472880684, "alt_km": 686.3853542554416, "timestamp": "2025-12-20T09:36:01.288045+00:00", "meta": {"OBJECT_NAME": "TERRA", "OBJECT_ID": "1999-068A", "EPOCH": "2025-12-19T22:10:40.130112", "MEAN_MOTION": 14.60909346, "ECCENTRICITY": 0.00035489, "INCLINATION": 97.9738, "RA_OF_ASC_NODE": 45.3446, "ARG_OF_PERICENTER": 80.3104, "MEAN_ANOMALY": 332.0344, "EPHEMERIS_TYPE": 0, "CLASSIFICATION_TYPE": "U", "NORAD_CAT_ID": 25994, "ELEMENT_SET_NO": 999, "REV_AT_EPOCH": 38343, "BSTAR": 7.5870231e-05, "MEAN_MOTION_DOT": 3.27e-06, "MEAN_MOTION_DDOT": 0}, "tle": {"line1": "1 25994U 99068A   25353.92407558  .00000327  00000+0  75870-4 0  9991", "line2": "2 25994  97.9738  45.3446 0003548  80.3104 332.0344 14.60909346383438"}}, "geometry": {"type": "Point", "coordinates": [40.489568472880684, 33.45145696646457]}}, {"type": "Feature", "properties": {"norad_id": 27004, "name": "MAROC-TUBSAT", "group": "resource", "lat": 46.29085070552631, "lon": 152.5717192347323, "alt_km": 1008.3109936997889, "timestamp": "2025-12-20T09:36:01.288058+00:00", "meta": {"OBJECT_NAME": "MAROC-TUBSAT", "OBJECT_ID": "2001-056D", "EPOCH": "2025-12-19T21:56:01.940640", "MEAN_MOTION": 13.70253245, "ECCENTRICITY": 0.001917, "INCLINATION": 99.7914, "RA_OF_ASC_NODE": 162.4845, "ARG_OF_PERICENTER": 241.0701, "MEAN_ANOMALY": 289.4784, "EPHEMERIS_TYPE": 0, "CLASSIFICATION_TYPE": "U", "NORAD_CAT_ID": 27004, "ELEMENT_SET_NO": 999, "REV_AT_EPOCH": 20163, "BSTAR": 1.8462795e-05, "MEAN_MOTION_DOT": -3e-07, "MEAN_MOTION_DDOT": 0}, "tle": {"line1": "1 27004U 01056D   25353.91391135 -.00000030  00000+0  18463-4 0  9994", "line2": "2 27004  99.7914 162.4845 0019170 241.0701 289.4784 13.70253245201633"}}, "geometry": {"type": "Point", "coordinates": [152.5717192347323, 46.29085070552631]}}, {"type": "Feature", "properties": {"norad_id": 27424, "name": "AQUA", "group": "resource", "lat": -64.31404408008837, "lon": -26.693736393421695, "alt_km": 695.4365848962489, "timestamp": "2025-12-20T09:36:01.288071+00:00", "meta": {"OBJECT_NAME": "AQUA", "OBJECT_ID": "2002-022A", "EPOCH": "2025-12-19T19:17:33.406368", "MEAN_MOTION": 14.61824191, "ECCENTRICITY": 0.00013487, "INCLINATION": 98.4046, "RA_OF_ASC_NODE": 314.798, "ARG_OF_PERICENTER": 112.3467, "MEAN_ANOMALY": 286.6091, "EPHEMERIS_TYPE": 0, "CLASSIFICATION_TYPE": "U", "NORAD_CAT_ID": 27424, "ELEMENT_SET_NO": 999, "REV_AT_EPOCH": 25706, "BSTAR": 0.00015509968, "MEAN_MOTION_DOT": 7.25e-06, "MEAN_MOTION_DDOT": 0}, "tle": {"line1": "1 27424U 02022A   25353.80385887  .00000725  00000+0  15510-3 0  9998", "line2": "2 27424  98.4046 314.7980 0001348 112.3467 286.6091 14.61824191257063"}}, "geometry": {"type": "Point", "coordinates": [-26.693736393421695, -64.31404408008837]}}, {"type": "Feature", "properties": {"norad_id": 28051, "name": "IRS-P6 (RESOURCESAT-1)", "group": "resource", "lat": 9.808634954231584, "lon": -144.1161524324783, "alt_km": 727.9052554466671, "timestamp": "2025-12-20T09:36:01.288082+00:00", "meta": {"OBJECT_NAME": "IRS-P6 (RESOURCESAT-1)", "OBJECT_ID": "2003-046A", "EPOCH": "2025-12-19T23:19:51.081600", "MEAN_MOTION": 14.36077285, "ECCENTRICITY": 0.00646134, "INCLINATION": 98.2172, "RA_OF_ASC_NODE": 34.0443, "ARG_OF_PERICENTER": 159.0346, "MEAN_ANOMALY": 319.8961, "EPHEMERIS_TYPE": 0, "CLASSIFICATION_TYPE": "U", "NORAD_CAT_ID": 28051, "ELEMENT_SET_NO": 999, "REV_AT_EPOCH": 15480, "BSTAR": 1.0804751e-05, "MEAN_MOTION_DOT": -9e-08, "MEAN_MOTION_DDOT": 0}, "tle": {"line1": "1 28051U 03046A   25353.97211900 -.00000009  00000+0  10805-4 0  9993", "line2": "2 28051  98.2172  34.0443 0064613 159.0346 319.8961 14.36077285154801"}}, "geometry": {"type": "Point", "coordinates": [-144.1161524324783, 9.808634954231584]}}, {"type": "Feature", "properties": {"norad_id": 28220, "name": "SHIYAN-1 (SY-1)", "group": "resource", "lat": 60.33338677981593, "lon": 42.29448155806715, "alt_km": 477.123559104808, "timestamp": "2025-12-20T09:36:01.288094+00:00", "meta": {"OBJECT_NAME": "SHIYAN-1 (SY-1)", "OBJECT_ID": "2004-012A", "EPOCH": "2025-12-19T03:28:38.259264", "MEAN_MOTION": 15.28303655, "ECCENTRICITY": 0.0005285, "INCLINATION": 97.8932, "RA_OF_ASC_NODE": 55.062, "ARG_OF_PERICENTER": 299.4151, "MEAN_ANOMALY": 60.656, "EPHEMERIS_TYPE": 0, "CLASSIFICATION_TYPE": "U", "NORAD_CAT_ID": 28220, "ELEMENT_SET_NO": 999, "REV_AT_EPOCH": 18354, "BSTAR": 0.00036633035, "MEAN_MOTION_DOT": 0.00010025, "MEAN_MOTION_DDOT": 0}, "tle": {"line1": "1 28220U 04012A   25353.14488726  .00010025  00000+0  36633-3 0  9990", "line2": "2 28220  97.8932  55.0620 0005285 299.4151  60.6560 15.28303655183545"}}, "geometry": {"type": "Point", "coordinates": [42.29448155806715, 60.33338677981593]}}, {"type": "Feature", "properties": {"norad_id": 28376, "name": "AURA", "group": "resource", "lat": 41.26596162888496, "lon": -62.71452410593526, "alt_km": 686.1372471270888, "timestamp": "2025-12-20T09:36:01.288105+00:00", "meta": {"OBJECT_NAME": "AURA", "OBJECT_ID": "2004-026A", "EPOCH": "2025-12-19T20:15:35.514720", "MEAN_MOTION": 14.60961765, "ECCENTRICITY": 0.00013573, "INCLINATION": 98.3194, "RA_OF_ASC_NODE": 304.104, "ARG_OF_PERICENTER": 92.9045, "MEAN_ANOMALY": 267.231, "EPHEMERIS_TYPE": 0, "CLASSIFICATION_TYPE": "U", "NORAD_CAT_ID": 28376, "ELEMENT_SET_NO": 999, "REV_AT_EPOCH": 14002, "BSTAR": 0.00015578543, "MEAN_MOTION_DOT": 7.15e-06, "MEAN_MOTION_DDOT": 0}, "tle": {"line1": "1 28376U 04026A   25353.84416105  .00000715  00000+0  15579-3 0  9997", "line2": "2 28376  98.3194 304.1040 0001357  92.9045 267.2310 14.60961765140022"}}, "geometry": {"type": "Point", "coordinates": [-62.71452410593526, 41.26596162888496]}}]}